SZ-21 MODULE            
1 66515U 25246C   26192.90617507  .00034985  00000+0  19568-3 0  9997
2 66515  41.4695 153.1215 0007517 198.3758 161.6817 15.78573776 37649
SPACEMOBILE-006         
1 67232U 25309A   26193.11775959  .00000291  00000+0  29209-4 0  9991
2 67232  52.9937 217.4329 0010354 205.0874 154.9618 15.18648870 30380
SPACEMOBILE-008         
1 69589U 26139A   26193.04775322 -.00000030  00000+0  15283-4 0  9995
2 69589  52.9943 149.6970 0004916  49.0948 311.0468 15.12799678  3743
SPACEMOBILE-009         
1 69590U 26139B   26192.98342303 -.00000045  00000+0  14462-4 0  9992
2 69590  52.9935 150.0027 0005147  44.4702 315.6701 15.12692851  3733
SPACEMOBILE-010         
1 69591U 26139C   26193.05225601 -.00000048  00000+0  14365-4 0  9998
2 69591  52.9940 149.7225 0005071  36.2612 323.8722 15.12524086  3750
